      2.10          N: GNSS NAV DATA                        RINEX VERSION / TYPE
fic2rin                                 03/19/2023 00:17:38 PGM / RUN BY / DATE
                                                            END OF HEADER
3  23  3 18  1 59 28.0 -.347882043570D-03  .682121026330D-11  .000000000000D+00
     .133000000000D+03 -.937187500000D+02  .432660879205D-08  .244617138954D+01
    -.501237809658D-05  .454727292527D-02  .246800482273D-05  .515370651054D+04
     .525568000000D+06 -.130385160446D-07 -.160869029088D+01 -.353902578354D-07
     .977607388609D+00  .338875000000D+03  .100887049363D+01 -.821105630917D-08
    -.252153360342D-09  .100000000000D+01  .225300000000D+04  .000000000000D+00
     .240000000000D+01  .000000000000D+00  .186264514923D-08  .133000000000D+03
     .518400000000D+06  .400000000000D+01
7  23  3 18  1 59 44.0  .220919959247D-03 -.784439180279D-11  .000000000000D+00
     .900000000000D+01  .295937500000D+02  .468983820773D-08  .300534739607D+01
     .138767063618D-05  .168957994319D-01  .862032175064D-05  .515375930023D+04
     .525584000000D+06  .502914190292D-07  .487947149917D+00 -.203028321266D-06
     .950758739832D+00  .206375000000D+03 -.221427956492D+01 -.772996484121D-08
     .513235664040D-09  .100000000000D+01  .225300000000D+04  .000000000000D+00
     .240000000000D+01  .000000000000D+00 -.111758708954D-07  .900000000000D+01
     .518400000000D+06  .400000000000D+01
10 23  3 19  0  0  0.0 -.291154719889D-04 -.159161572810D-11  .000000000000D+00
     .440000000000D+02 -.612500000000D+02  .459483425043D-08  .482045832012D+00
    -.303983688354D-05  .847349164542D-02  .142678618431D-05  .515368371773D+04
     .000000000000D+00 -.502914190292D-07 -.173243061243D+01  .152736902237D-06
     .977343476724D+00  .359343750000D+03 -.243138770558D+01 -.857321425164D-08
    -.311798701953D-09  .100000000000D+01  .225400000000D+04  .000000000000D+00
     .240000000000D+01  .000000000000D+00  .232830643654D-08  .440000000000D+02
    -.720000000000D+04  .400000000000D+01
8  23  3 19  0  0  0.0 -.113579910249D-03 -.181898940355D-11  .000000000000D+00
     .510000000000D+02  .753125000000D+01  .439768318116D-08 -.148608469783D+01
     .167638063431D-06  .842384388670D-02  .120047479868D-04  .515367455292D+04
     .000000000000D+00  .931322574615D-08  .243299901622D+01 -.139698386192D-06
     .959673133552D+00  .144718750000D+03  .236940978114D+00 -.788211403597D-08
    -.350014579512D-09  .100000000000D+01  .225400000000D+04  .000000000000D+00
     .240000000000D+01  .000000000000D+00  .512227416039D-08  .510000000000D+02
    -.720000000000D+04  .400000000000D+01
9  23  3 19  0  0  0.0 -.197935383767D-03  .750333128963D-11  .000000000000D+00
     .720000000000D+02 -.107968750000D+03  .433482341994D-08 -.113809384823D+01
    -.568293035030D-05  .240251899231D-02  .107474625111D-04  .515366134834D+04
     .000000000000D+00 -.130385160446D-07 -.704386590723D+00  .428408384323D-07
     .955945292056D+00  .170750000000D+03  .197270043283D+01 -.798247535928D-08
    -.125719522437D-09  .100000000000D+01  .225400000000D+04  .000000000000D+00
     .240000000000D+01  .000000000000D+00  .139698386192D-08  .720000000000D+02
    -.720000000000D+04  .400000000000D+01
7  23  3 19  0  0  0.0  .220299232751D-03 -.784439180279D-11  .000000000000D+00
     .109000000000D+03  .381875000000D+02  .471019619858D-08  .199239097371D+01
     .185705721378D-05  .169063749490D-01  .980123877525D-05  .515376493835D+04
     .000000000000D+00 -.314787030220D-06  .366884316627D+00 -.366941094398D-06
     .950798801844D+00  .185812500000D+03 -.221391438107D+01 -.804319217410D-08
     .665027701073D-09  .100000000000D+01  .225400000000D+04  .000000000000D+00
     .240000000000D+01  .000000000000D+00 -.111758708954D-07  .109000000000D+03
    -.720000000000D+04  .400000000000D+01
6  23  3 19  0  0  0.0  .582224689424D-03  .272848410532D-11  .000000000000D+00
     .700000000000D+02  .110968750000D+03  .395837916810D-08  .279289135100D+01
     .599771738052D-05  .289530807640D-02  .699236989021D-05  .515363495636D+04
     .000000000000D+00  .260770320892D-07 -.276928989467D+01  .147148966789D-06
     .989087541683D+00  .260750000000D+03 -.791755781543D+00 -.790068623815D-08
     .315013121561D-09  .100000000000D+01  .225400000000D+04  .000000000000D+00
     .240000000000D+01  .000000000000D+00  .372529029846D-08  .700000000000D+02
    -.720000000000D+04  .400000000000D+01
4  23  3 19  0  0  0.0 -.393996015191D-05  .875388650456D-11  .000000000000D+00
     .202000000000D+03 -.110625000000D+03  .411874299075D-08 -.196175390692D+01
    -.583752989769D-05  .234688562341D-02  .110529363155D-04  .515370429993D+04
     .000000000000D+00 -.558793544769D-07 -.648261308514D+00  .204890966415D-07
     .962747912326D+00  .168687500000D+03 -.300281004659D+01 -.776710924556D-08
    -.675028117631D-10  .100000000000D+01  .225400000000D+04  .000000000000D+00
     .240000000000D+01  .000000000000D+00 -.465661287308D-08  .970000000000D+03
    -.720000000000D+04  .400000000000D+01
29 23  3 19  0  0  0.0 -.591468065977D-03 -.181898940355D-11  .000000000000D+00
     .820000000000D+02  .460000000000D+02  .398230873629D-08 -.140248297457D+01
     .224076211452D-05  .229230569676D-02  .125300139189D-04  .515357037354D+04
     .000000000000D+00 -.204890966415D-07  .253484154610D+01 -.651925802231D-07
     .977492754348D+00  .151250000000D+03  .238572625507D+01 -.768424865123D-08
    -.347871633107D-09  .100000000000D+01  .225400000000D+04  .000000000000D+00
     .240000000000D+01  .000000000000D+00 -.102445483208D-07  .820000000000D+02
    -.720000000000D+04  .400000000000D+01
31 23  3 19  0  0  0.0 -.211926177144D-03 -.909494701773D-12  .000000000000D+00
     .820000000000D+02  .336250000000D+02  .467519474063D-08  .131222195458D+01
     .192597508430D-05  .106147548649D-01  .960566103458D-05  .515418123055D+04
     .000000000000D+00 -.726431608200D-07  .386566360875D+00  .819563865662D-07
     .954888702399D+00  .193281250000D+03  .519850781917D+00 -.810926635492D-08
     .526093342471D-09  .100000000000D+01  .225400000000D+04  .000000000000D+00
     .240000000000D+01  .000000000000D+00 -.135041773319D-07  .820000000000D+02
    -.720000000000D+04  .400000000000D+01
32 23  3 19  0  0  0.0 -.427304767072D-03 -.108002495836D-10  .000000000000D+00
     .660000000000D+02 -.119750000000D+03  .431410827135D-08 -.817473522962D+00
    -.618770718575D-05  .676672521513D-02  .116359442472D-04  .515372738457D+04
     .000000000000D+00  .689178705215D-07 -.691515755538D+00  .165775418282D-06
     .959613639600D+00  .155093750000D+03 -.223371318227D+01 -.801890544817D-08
    -.165006873199D-09  .100000000000D+01  .225400000000D+04  .000000000000D+00
     .240000000000D+01  .000000000000D+00  .465661287308D-09  .660000000000D+02
    -.720000000000D+04  .400000000000D+01
16 23  3 19  0  0  0.0 -.514603219926D-03  .227373675443D-11  .000000000000D+00
     .770000000000D+02 -.132812500000D+02  .492877673191D-08 -.649949802710D+00
    -.372529029846D-06  .134155042470D-01  .534020364285D-05  .515355701828D+04
     .000000000000D+00  .102445483208D-06  .149996774944D+01  .186264514923D-06
     .965406844933D+00  .277468750000D+03  .779609412650D+00 -.841535053313D-08
    -.248938940735D-09  .100000000000D+01  .225400000000D+04  .000000000000D+00
     .240000000000D+01  .000000000000D+00 -.102445483208D-07  .770000000000D+02
    -.720000000000D+04  .400000000000D+01
30 23  3 19  0  0  0.0 -.526336953044D-03  .159161572810D-11  .000000000000D+00
     .460000000000D+02  .441562500000D+02  .510842707221D-08  .183653279044D+01
     .233575701714D-05  .626077828929D-02  .953301787376D-05  .515362577438D+04
     .000000000000D+00 -.165775418282D-06  .374039494303D+00  .633299350739D-07
     .935921940243D+00  .183781250000D+03 -.263263537265D+01 -.833927593574D-08
     .563594904561D-09  .100000000000D+01  .225400000000D+04  .000000000000D+00
     .240000000000D+01  .000000000000D+00  .372529029846D-08  .460000000000D+02
    -.720000000000D+04  .400000000000D+01
15 23  3 19  0  0  0.0  .227726995945D-04  .341060513165D-11  .000000000000D+00
     .540000000000D+02 -.131406250000D+03  .471341061819D-08 -.244942021607D+01
    -.679865479469D-05  .147645423422D-01  .103749334812D-04  .515370123482D+04
     .000000000000D+00  .126659870148D-06 -.820914762715D+00 -.689178705215D-07
     .932101618917D+00  .159250000000D+03  .118410924592D+01 -.794747390133D-08
    -.135362781260D-09  .100000000000D+01  .225400000000D+04  .000000000000D+00
     .240000000000D+01  .000000000000D+00 -.107102096081D-07  .540000000000D+02
    -.720000000000D+04  .400000000000D+01
20 23  3 19  0  0  0.0  .444197095931D-03 -.238742359215D-11  .000000000000D+00
     .510000000000D+02 -.316250000000D+02  .518664461600D-08 -.285008048040D+01
    -.167265534401D-05  .433796714060D-02  .623986124992D-06  .515377168083D+04
     .000000000000D+00 -.100582838058D-06 -.189669912051D+01 -.949949026108D-07
     .947147111085D+00  .355718750000D+03 -.289397413192D+01 -.868286167604D-08
    -.153220667970D-09  .100000000000D+01  .225400000000D+04  .000000000000D+00
     .240000000000D+01  .000000000000D+00 -.838190317154D-08  .510000000000D+02
    -.720000000000D+04  .400000000000D+01
11 23  3 19  0  0  0.0 -.134509988129D-03 -.115960574476D-10  .000000000000D+00
     .840000000000D+02  .112781250000D+03  .454983237592D-08 -.218882306849D+01
     .607408583164D-05  .745119410567D-03  .549666583538D-05  .515371924973D+04
     .000000000000D+00  .614672899246D-07 -.272642060764D+01 -.931322574615D-08
     .965190928465D+00  .274750000000D+03 -.273370995246D+01 -.823248577322D-08
     .283583240952D-09  .100000000000D+01  .225400000000D+04  .000000000000D+00
     .240000000000D+01  .000000000000D+00 -.884756445885D-08  .340000000000D+03
    -.720000000000D+04  .400000000000D+01
